{
    "links": {
        "self": "http://www.neowsapp.com/rest/v1/neo/3779445?api_key=iIulBulltgU6a56xZRHN4H3l9WmuAYTsLGpBGhQ2"
    },
    "id": "3779445",
    "neo_reference_id": "3779445",
    "name": "(2017 PG)",
    "designation": "2017 PG",
    "nasa_jpl_url": "http://ssd.jpl.nasa.gov/sbdb.cgi?sstr=3779445",
    "absolute_magnitude_h": 24.0,
    "estimated_diameter": {
        "kilometers": {
            "estimated_diameter_min": 0.0421264611,
            "estimated_diameter_max": 0.0941976306
        },
        "meters": {
            "estimated_diameter_min": 42.1264610556,
            "estimated_diameter_max": 94.1976305719
        },
        "miles": {
            "estimated_diameter_min": 0.0261761612,
            "estimated_diameter_max": 0.0585316759
        },
        "feet": {
            "estimated_diameter_min": 138.2101784897,
            "estimated_diameter_max": 309.0473542854
        }
    },
    "is_potentially_hazardous_asteroid": false,
    "close_approach_data": [
        {
            "close_approach_date": "2014-07-30",
            "close_approach_date_full": "2014-Jul-30 04:04",
            "epoch_date_close_approach": 1406693040000,
            "relative_velocity": {
                "kilometers_per_second": "14.2575496036",
                "kilometers_per_hour": "51327.178572955",
                "miles_per_hour": "31892.7127082897"
            },
            "miss_distance": {
                "astronomical": "0.2906463792",
                "lunar": "113.0614415088",
                "kilometers": "43480079.251532304",
                "miles": "27017268.4395176352"
            },
            "orbiting_body": "Earth"
        },
        {
            "close_approach_date": "2017-08-06",
            "close_approach_date_full": "2017-Aug-06 02:13",
            "epoch_date_close_approach": 1501985580000,
            "relative_velocity": {
                "kilometers_per_second": "10.7001910063",
                "kilometers_per_hour": "38520.687622833",
                "miles_per_hour": "23935.2572620875"
            },
            "miss_distance": {
                "astronomical": "0.0880536726",
                "lunar": "34.2528786414",
                "kilometers": "13172641.866637362",
                "miles": "8185100.1077931156"
            },
            "orbiting_body": "Earth"
        }
    ],
    "orbital_data": {
        "orbit_id": "2",
        "orbit_determination_date": "2019-07-17 06:11:59",
        "first_observation_date": "2017-07-29",
        "last_observation_date": "2017-08-04",
        "data_arc_in_days": 6,
        "observations_used": 18,
        "orbit_uncertainty": "8",
        "minimum_orbit_intersection": ".0756381",
        "jupiter_tisserand_invariant": "4.873",
        "epoch_osculation": "2457966.5",
        "eccentricity": ".1974323362218139",
        "semi_major_axis": "1.321188200801105",
        "inclination": "18.98801430171487",
        "ascending_node_longitude": "131.7023522688388",
        "orbital_period": "554.6837673408422",
        "perihelion_distance": "1.060342927728248",
        "perihelion_argument": "214.9995179263707",
        "aphelion_distance": "1.582033473873962",
        "perihelion_time": "2458002.867692350686",
        "mean_anomaly": "336.3966966096523",
        "mean_motion": ".6490184519475708",
        "equinox": "J2000",
        "orbit_class": {
            "orbit_class_type": "AMO",
            "orbit_class_description": "Near-Earth asteroid orbits similar to that of 1221 Amor",
            "orbit_class_range": "1.017 AU < q (perihelion) < 1.3 AU"
        }
    },
    "is_sentry_object": false
}